STARLINK-31416          
1 59355U 24060H   26068.56825086 -.00008558  00000+0 -30159-3 0  9999
2 59355  43.0026 260.5943 0001286 274.5772  85.4932 15.27606821110049
TEVEL2-9                
1 63237U 25052AD  26068.70229538  .00018694  00000+0  67240-3 0  9992
2 63237  97.4057 324.3929 0007990 124.2475 235.9522 15.28633834 54816
